1 37473U 99025EJT 18207.72607304 +.00001264 +00000-0 +16897-3 0  9993
2 37473 099.1966 128.3271 0343160 057.4462 305.9385 14.48229793460670
1 37474U 99025EJU 18208.08678185 +.00000345 +00000-0 +96864-4 0  9991
2 37474 099.1340 147.1552 0217942 243.0942 114.7825 14.40500464441417
1 37475U 99025EJV 18211.00701600 +.00000312 +00000-0 +15102-3 0  9996
2 37475 098.9137 299.1179 0113552 014.8479 345.5987 14.22186700263219
1 37476U 99025EJW 18211.59336445  .00000373  00000-0  11069-2 0  9996
2 37476  98.9612 334.6642 1093890  13.7261 349.1164 11.84723201355068
1 37477U 99025EJX 18209.96558521 +.00000225 +00000-0 +14429-3 0  9996
2 37477 098.8087 250.6646 0031653 252.7447 107.0260 14.12750352438706
1 37478U 99025EJY 18212.53818791  .00000381  00000-0  71133-3 0  9990
2 37478  99.6436 102.6150 0570458 341.6785  16.4497 12.95179911398103
1 37479U 99025EJZ 18211.40910988  .00000307  00000-0  19523-3 0  9990
2 37479  98.8999 278.3822 0033004 298.7430  61.0426 14.10871759488416
1 37480U 99025EKA 11171.25394616 +.00003041 +00000-0 +38735-3 0  9991
2 37480 099.1016 343.8358 0231405 047.5732 313.9141 14.65385500131034
1 37483U 93036BLL 18212.37091750  .00000088  00000-0  35341-4 0  9998
2 37483  73.9758 101.2280 0098600 206.4228 153.1881 14.39686382453253
1 37484U 93036BLM 18212.55081312  .00000242  00000-0  10107-3 0  9996
2 37484  73.8284 154.6465 0047921 330.7716 150.6561 14.31084186462395
1 37486U 93036BLP 18212.24581226  .00000710  00000-0  41138-3 0  9991
2 37486  73.7096 173.1407 0287217  73.5700 350.1131 13.91859472449015
1 37487U 93036BLQ 18211.32594428  .00000609  00000-0  21802-3 0  9991
2 37487  73.9369 196.6768 0055149 258.9642 100.5304 14.35378620423642
1 37488U 93036BLR 18211.81835060 +.00001000 +00000-0 +14442-3 0  9994
2 37488 073.9945 271.4629 0079350 122.8632 238.0213 14.75580688496255
1 37491U 93036BLU 18212.28284989  .00000330  00000-0  28015-3 0  9994
2 37491  73.9078  69.3811 0332290 208.0865 150.1977 13.68572076436363
1 37492U 93036BLV 18211.76368116 +.00000932 +00000-0 +14475-3 0  9995
2 37492 074.0057 244.1980 0043784 009.0458 351.1493 14.74048209476125
1 37494U 93036BLX 18210.39352051 +.00000323 +00000-0 +93279-4 0  9990
2 37494 073.9993 098.8554 0107480 351.2096 008.7175 14.45536708460814
1 37495U 93036BLY 18211.24579615  .00000914  00000-0  11772-3 0  9996
2 37495  74.0000 176.1955 0071672 266.7314  92.5661 14.81033484466851
1 37496U 93036BLZ 18211.95429652 +.00000397 +00000-0 +99288-4 0  9994
2 37496 073.9666 066.3628 0144274 345.3551 014.3446 14.49080869267889
1 37498U 93036BMB 18211.54363919  .00000306  00000-0  10421-3 0  9995
2 37498  74.0430 150.2146 0017923 163.4202 196.7543 14.40464249468629
1 37499U 93036BMC 18209.29300850 +.00000039 +00000-0 +23888-4 0  9995
2 37499 074.0368 202.5144 0029711 217.8930 142.0130 14.32242120465580
1 37500U 93036BMD 18212.20996868  .00000312  00000-0  15610-4 0  9991
2 37500  73.9586 171.2229 0185585 304.7156  53.6673 15.09922441488037
1 37501U 93036BME 18208.59306200 +.00000945 +00000-0 +12364-3 0  9998
2 37501 074.0030 184.4171 0062823 292.8079 066.6469 14.80717750463916
1 37502U 93036BMF 18210.88887825 +.00002270 +00000-0 +42669-3 0  9995
2 37502 074.2127 179.5462 0037737 325.7520 034.1215 14.64803886229745
1 37503U 93036BMG 18211.95832485 +.00007924 +00000-0 +50639-3 0  9994
2 37503 074.0030 199.2521 0012650 265.6392 094.3354 15.08713165452736
1 37504U 93036BMH 14071.89934830 +.00006078 +00000-0 +12961-2 0  9999
2 37504 074.0897 150.3070 0078521 257.4247 116.1487 14.57194902213563
1 37506U 93036BMK 18211.07449689 +.00000618 +00000-0 +14935-3 0  9992
2 37506 074.0532 110.5897 0032956 103.9796 256.5035 14.54908144266410
1 37508U 93036BMM 18211.48591810  .00000599  00000-0  12003-3 0  9995
2 37508  73.7698 256.1792 0104652 182.0199 178.0560 14.60891655458138
1 37510U 93036BMP 18209.95722655 +.00000513 +00000-0 +97065-4 0  9998
2 37510 074.0142 311.3531 0040397 030.9754 329.3785 14.66614324474889
1 37515U 93036BMU 18212.42857337  .00000832  00000-0  26630-3 0  9998
2 37515  74.1590 254.4833 0092781 165.7843 194.5957 14.38642930466915
1 37518U 93036BMX 18211.28270150 +.00000546 +00000-0 +14396-3 0  9994
2 37518 074.0051 061.1179 0034810 136.2754 224.1174 14.51064080265971
1 37521U 93036BNA 18212.54760594  .00001399  00000-0  14295-3 0  9999
2 37521  74.0489 158.6370 0055277 195.5266 288.5749 14.90584004476951
1 37527U 93036BNG 18208.67003459 +.00000831 +00000-0 +15140-3 0  9994
2 37527 074.0062 324.8266 0034548 049.3210 311.0952 14.67382127475366
1 37528U 93036BNH 18212.37455635  .00000156  00000-0  53762-4 0  9997
2 37528  74.0399  96.7910 0023076 191.2965 168.7677 14.43464208470450
1 37529U 93036BNJ 18210.58416662 +.00000737 +00000-0 +17539-3 0  9992
2 37529 074.0252 065.0951 0053226 102.0719 258.6415 14.54779638268698
1 37530U 93036BNK 18206.41751338 +.00000078 +00000-0 +39037-4 0  9999
2 37530 074.0351 216.4651 0028950 217.5691 211.4704 14.31603884466115
1 37531U 93036BNL 18204.75594825 +.00000702 +00000-0 +25003-3 0  9992
2 37531 074.0226 231.3002 0061181 245.1913 114.2867 14.35097331465319
1 37532U 93036BNM 18211.48073094  .00000068  00000-0  30757-4 0  9999
2 37532  74.0524 142.9036 0016876 200.1327 278.6166 14.38682361461719
1 37533U 93036BNN 18211.28184007  .00000370  00000-0  22859-3 0  9994
2 37533  74.0666 194.3351 0182561 174.9859 185.3162 14.00715687455733
1 37535U 93036BNQ 18211.34325553 +.00000219 +00000-0 +69105-4 0  9994
2 37535 074.0273 083.3541 0035073 160.7225 321.4671 14.45755657463302
1 37537U 93036BNS 18211.20551398 +.00000047 +00000-0 +25692-4 0  9991
2 37537 074.0127 169.5606 0054711 230.3203 129.3118 14.34471742464031
1 37538U 93036BNT 18211.42970992  .00000540  00000-0  12361-3 0  9997
2 37538  74.0227  12.3697 0045095  82.7998 277.8290 14.57560415438080
1 37539U 93036BNU 11262.19479143 +.00000786 +00000-0 +29032-3 0  9998
2 37539 074.0515 081.9073 0021619 352.5149 007.5676 14.33973190078115
1 37542U 93036BNX 13063.73158620 +.00002455 +00000-0 +93317-3 0  9999
2 37542 074.0360 212.7736 0049454 336.6417 023.4889 14.30835846180552
1 37543U 93036BNY 18210.36179194 +.00001452 +00000-0 +94507-4 0  9996
2 37543 073.9668 341.2820 0075006 087.6485 273.3290 15.06799913289554
1 37544U 93036BNZ 18211.53623452 +.00001636 +00000-0 +23771-3 0  9996
2 37544 073.9759 266.8326 0030120 113.6056 246.8286 14.76555173236502
1 37546U 93036BPB 18212.07577802  .00000480  00000-0  14702-3 0  9995
2 37546  74.0344 129.8629 0015994 122.0720 238.1993 14.44316169462071
1 37547U 93036BPC 18212.04865214  .00000502  00000-0  11028-3 0  9993
2 37547  74.0390 359.8581 0027945  96.5119 263.9230 14.59995447466196
1 37548U 97051XH  18211.98690675  .00000610  00000-0  20633-3 0  9996
2 37548  86.3579 109.9327 0033379  42.3304 318.0458 14.34956086472018
1 37549U 97051XJ  18212.48859842  .00002244  00000-0  50310-3 0  9996
2 37549  86.3828 113.8462 0041992 289.8003  69.8680 14.55679663473075
1 37550U 97051XK  18211.43133582  .00000417  00000-0  11560-3 0  9992
2 37550  86.3849 101.6776 0003731  93.9219 266.2409 14.44215637473285
1 37555U 97051XQ  18211.07961584 +.00003404 +00000-0 +74049-3 0  9998
2 37555 086.4602 140.2936 0035917 359.0528 001.0606 14.57352871281653
1 37557U 97051XS  18211.16172233  .00002202  00000-0  79339-3 0  9997
2 37557  86.3812 166.4840 0134948  28.1279 332.7117 14.28318736464623
1 37558U 97051XT  18154.72358348  .00001365  00000-0  34846-3 0  9992
2 37558  86.4027 142.7693 0084825 199.6448 167.6623 14.47654101434697
1 37560U 97051XV  18212.16100789  .00001857  00000-0  57763-3 0  9991
2 37560  86.3895 150.6918 0092747 228.5770 198.6115 14.38060327443749
1 37562U 97051XX  18212.47581312  .00000391  00000-0  11999-3 0  9995
2 37562  86.3815 110.3756 0032396  14.0734 109.7530 14.38869294475118
1 37565U 97051YA  18210.95210741 +.00000249 +00000-0 +69787-4 0  9995
2 37565 086.3516 088.0096 0015356 014.4312 046.8208 14.42017267269653
1 37566U 97051YB  18212.41106731  .00021641  00000-0  13512-2 0  9994
2 37566  86.4355  98.0261 0003635  43.3066 316.8457 15.09374853454119
1 37567U 10038C   18211.53554778 +.00000436 +00000-0 +83392-4 0  9999
2 37567 097.9600 112.9836 0148922 098.9408 024.2985 14.61796793419192
1 37568U 10038D   18212.32735092  .00000337  00000-0  83664-4 0  9990
2 37568  97.8275  55.5907 0183309 257.8309 100.2300 14.48422867417046
1 37569U 10038E   18212.56443135  .00000351  00000-0  74764-4 0  9998
2 37569  97.7922  70.5984 0162736 140.1118 221.2175 14.56614238418274
1 37570U 10038F   18211.77129675 +.00000327 +00000-0 +79941-4 0  9997
2 37570 097.7770 041.1977 0180620 232.6146 125.8487 14.49419618419287
1 37571U 08026C   18211.83298878 +.00000052 +00000-0 +76374-4 0  9993
2 37571 098.8079 062.1813 0249412 038.4896 024.4406 13.74591354306851
1 37572U 08026D   18211.30143698  .00000052  00000-0  76217-4 0  9991
2 37572  98.7136  31.7371 0244814 358.5225 121.2816 13.75382645499822
1 37573U 08026E   18211.76944712 +.00000089 +00000-0 +10461-3 0  9996
2 37573 098.7067 053.9886 0224636 290.1947 132.5763 13.79575489494819
1 37574U 08026F   18211.74898050 +.00000039 +00000-0 +65729-4 0  9991
2 37574 098.7630 041.0179 0254736 045.4965 316.6699 13.73134932294431
1 37578U 99025EKB 18208.15442206 +.00001175 +00000-0 +40669-3 0  9990
2 37578 098.7508 278.3451 0069731 290.4709 068.9000 14.36267887500297
1 37579U 99025EKC 18212.33675291  .00000456  00000-0  26853-3 0  9998
2 37579  99.3345  25.1593 0037694  12.5203 347.6895 14.12967041511265
1 37580U 99025EKD 18212.54677855 -.00000189  00000-0 -82922-4 0  9996
2 37580  99.1330 232.4779 0129127 165.9119 347.9358 14.05127236773397
1 37581U 99025EKE 18211.45387909  .00000127  00000-0  73742-4 0  9994
2 37581  98.8656 202.8978 0111581 251.8455 266.4126 14.22013314833867
1 37582U 99057SX  18207.80481273 +.00001741 +00000-0 +27903-3 0  9993
2 37582 098.3137 207.6533 0006348 243.6351 116.4205 14.73050319497944
1 37585U 91082CR  18211.93962669 +.00001491 +00000-0 +42858-3 0  9996
2 37585 098.7489 264.8433 0003757 264.7510 095.3252 14.46340701269533
